{
  "type": "FeatureCollection",
  "features": [
    {
      "type": "Feature",
      "properties": { "id": 111, "name": "Неман, прибрежная зона" },
      "geometry": {
        "type": "Polygon",
        "coordinates": [
          [
            [
              23.85024328060419,
              53.66419166923666
            ],
            [
              23.848843508440666,
              53.66329679325196
            ],
            [
              23.85024328060419,
              53.66246737903029
            ],
            [
              23.85190090553519,
              53.661812566799284
            ],
            [
              23.85400056378046,
              53.66128870968927
            ],
            [
              23.856579091450357,
              53.661179571972156
            ],
            [
              23.858641913586553,
              53.661245054636424
            ],
            [
              23.860446882955188,
              53.66028463202906
            ],
            [
              23.862730721748505,
              53.659171387531586
            ],
            [
              23.864904052213262,
              53.65816725943159
            ],
            [
              23.867593088213113,
              53.65670468223166
            ],
            [
              23.869692746458384,
              53.65565683452931
            ],
            [
              23.871755568594523,
              53.65473994642389
            ],
            [
              23.874076243496887,
              53.654281494892814
            ],
            [
              23.877686182235607,
              53.6536920498846
            ],
            [
              23.88070674321972,
              53.652993437721705
            ],
            [
              23.882806401464933,
              53.65255679924098
            ],
            [
              23.884942895820643,
              53.65231664614876
            ],
            [
              23.885863798559484,
              53.65225114961365
            ],
            [
              23.886342667984167,
              53.653648386963766
            ],
            [
              23.88313792645198,
              53.65415050782562
            ],
            [
              23.87974900437041,
              53.65471811551157
            ],
            [
              23.87694946004342,
              53.655263884926114
            ],
            [
              23.87440776848254,
              53.65604978047017
            ],
            [
              23.872639635224346,
              53.656595532644445
            ],
            [
              23.870797829745243,
              53.657250425927884
            ],
            [
              23.869398057581748,
              53.65816725943159
            ],
            [
              23.867703596541645,
              53.659171387531586
            ],
            [
              23.865714446624963,
              53.6601973197977
            ],
            [
              23.864093657802982,
              53.66111408920571
            ],
            [
              23.86188349122918,
              53.66216180125531
            ],
            [
              23.860078521860487,
              53.66268564751343
            ],
            [
              23.857610502519208,
              53.66305670134025
            ],
            [
              23.855289827615422,
              53.663034874734905
            ],
            [
              23.85319016937015,
              53.663209487260474
            ],
            [
              23.85024328060419,
              53.66419166923666
            ]
          ]
        ]
      }
    },
    {
      "type": "Feature",
      "properties": { "id": 112, "name": "Фомичёвский овраг, яблоневый сад" },
      "geometry": {
        "type": "Polygon",
        "coordinates": [
          [
            [
              23.849638595451353,
              53.66310856197481
            ],
            [
              23.847681039546558,
              53.66116633486166
            ],
            [
              23.845996630977737,
              53.66014123446706
            ],
            [
              23.844767467967785,
              53.65892726754498
            ],
            [
              23.843492780401675,
              53.65774024385897
            ],
            [
              23.84280991206296,
              53.65682297538868
            ],
            [
              23.844130124184318,
              53.65639131273133
            ],
            [
              23.844904041635374,
              53.656553186746066
            ],
            [
              23.846133204645298,
              53.658117936839744
            ],
            [
              23.846725023872636,
              53.65852260413479
            ],
            [
              23.847772088658843,
              53.65938588138047
            ],
            [
              23.848910202556482,
              53.660006350979955
            ],
            [
              23.850958807573676,
              53.66097750245186
            ],
            [
              23.851869298692236,
              53.66192165604133
            ],
            [
              23.849638595451353,
              53.66310856197481
            ]
          ]
        ]
      }
    },
    {
      "type": "Feature",
      "properties": { "id": 113, "name": "Парковая зона" },
      "geometry": {
        "type": "Polygon",
        "coordinates": [
          [
            [
              23.854478259118395,
              53.65839992869695
            ],
            [
              23.85702471166988,
              53.65995266302909
            ],
            [
              23.85632351459077,
              53.66089302361672
            ],
            [
              23.854884215322073,
              53.661264788294545
            ],
            [
              23.85314967517928,
              53.66154907671836
            ],
            [
              23.851488945254374,
              53.66178962696361
            ],
            [
              23.850566317518854,
              53.6622269875287
            ],
            [
              23.849016302922053,
              53.66152720844602
            ],
            [
              23.848684156937622,
              53.66087115500403
            ],
            [
              23.847909149639236,
              53.66028069817497
            ],
            [
              23.848536536499154,
              53.65995266302909
            ],
            [
              23.847982959858456,
              53.65920910724634
            ],
            [
              23.8490901131413,
              53.65780943724897
            ],
            [
              23.85030798175228,
              53.65765634552338
            ],
            [
              23.85185799634911,
              53.65750325324137
            ],
            [
              23.85111989415958,
              53.656147268760975
            ],
            [
              23.854478259118395,
              53.65839992869695
            ]
          ]
        ]
      }
    },
    {
      "type": "Feature",
      "properties": { "id": 114, "name": "Лесная зона" },
      "geometry": {
        "type": "Polygon",
        "coordinates": [
          [
            [
              23.85599136860489,
              53.66130852510017
            ],
            [
              23.85455206933767,
              53.659668363837426
            ],
            [
              23.85348182116371,
              53.65765634552338
            ],
            [
              23.8561758941523,
              53.65774382657759
            ],
            [
              23.858168770061667,
              53.65813748907459
            ],
            [
              23.85875925181267,
              53.658050008837364
            ],
            [
              23.858205675171945,
              53.656387849835454
            ],
            [
              23.85728304743506,
              53.654922471094494
            ],
            [
              23.85706161677882,
              53.654244442798614
            ],
            [
              23.85672947079442,
              53.653325806421265
            ],
            [
              23.857836624077237,
              53.65256026081636
            ],
            [
              23.85728304743506,
              53.65234153094764
            ],
            [
              23.85802114962459,
              53.65164158774152
            ],
            [
              23.86030926640953,
              53.651313485363715
            ],
            [
              23.862043806552236,
              53.651335358935086
            ],
            [
              23.86315095983653,
              53.65297584444093
            ],
            [
              23.86348310582096,
              53.65435380293843
            ],
            [
              23.86422120800904,
              53.65511931597629
            ],
            [
              23.866435514576068,
              53.654791240662234
            ],
            [
              23.868133149609974,
              53.65435380293843
            ],
            [
              23.86721052187309,
              53.653763254811565
            ],
            [
              23.866509324793924,
              53.65308520787195
            ],
            [
              23.865697412386595,
              53.65266962532539
            ],
            [
              23.864737879542247,
              53.65181657463245
            ],
            [
              23.86687837588866,
              53.65157596747031
            ],
            [
              23.868871251798026,
              53.65168533453215
            ],
            [
              23.870089120410427,
              53.65304146253382
            ],
            [
              23.87086412770742,
              53.65437567493254
            ],
            [
              23.8720081861006,
              53.65474749709429
            ],
            [
              23.87289390872715,
              53.654506906657986
            ],
            [
              23.87525583573131,
              53.65409133812548
            ],
            [
              23.877101091202206,
              53.6536976378425
            ],
            [
              23.877654667844297,
              53.65308520787195
            ],
            [
              23.87735942696881,
              53.65194781432379
            ],
            [
              23.87654751456148,
              53.651444726621065
            ],
            [
              23.87654751456148,
              53.65081039009203
            ],
            [
              23.877507047405857,
              53.650547903219376
            ],
            [
              23.879020156893745,
              53.65048228124559
            ],
            [
              23.880127312121687,
              53.650285413978565
            ],
            [
              23.882303975285765,
              53.649869803465464
            ],
            [
              23.883263508130142,
              53.65008854615712
            ],
            [
              23.883374223458276,
              53.65109474792342
            ],
            [
              23.883337318349362,
              53.65221029137848
            ],
            [
              23.88403851542853,
              53.652144671992374
            ],
            [
              23.88437066141435,
              53.651422852003435
            ],
            [
              23.88462899717956,
              53.6510072530709
            ],
            [
              23.885625435134244,
              53.651772826874634
            ],
            [
              23.885809960681655,
              53.652407148924425
            ],
            [
              23.8827468365983,
              53.65277898844781
            ],
            [
              23.880274194266008,
              53.653282060229884
            ],
            [
              23.877912267261877,
              53.65385074284208
            ],
            [
              23.875144384054096,
              53.65439754581243
            ],
            [
              23.873520559239466,
              53.654747495991444
            ],
            [
              23.871712208877454,
              53.655184929630195
            ],
            [
              23.86931337676444,
              53.65610352549729
            ],
            [
              23.866693113993705,
              53.65745951138476
            ],
            [
              23.86525381472643,
              53.6585092769547
            ],
            [
              23.863187128597843,
              53.659384061625445
            ],
            [
              23.861046632250037,
              53.660543123350834
            ],
            [
              23.858869230793175,
              53.66122105034131
            ],
            [
              23.857835887729664,
              53.66139599747203
            ],
            [
              23.85599136860489,
              53.66130852510017
            ]
          ]
        ]
      }
    },
    {
      "type": "Feature",
      "properties": { "id": 115, "name": "Зона поля" },
      "geometry": {
        "type": "Polygon",
        "coordinates": [
          [
            [
              23.86378148039941,
              53.65524204353352
            ],
            [
              23.862718177824576,
              53.65344999258542
            ],
            [
              23.861654875249798,
              53.65173664187961
            ],
            [
              23.86125613678354,
              53.65112612078002
            ],
            [
              23.860890626523656,
              53.65004291642768
            ],
            [
              23.86421344706929,
              53.64864455693336
            ],
            [
              23.86796823428614,
              53.64697040358874
            ],
            [
              23.869031536860973,
              53.64667495786355
            ],
            [
              23.8714904240656,
              53.64706888503727
            ],
            [
              23.87328474716034,
              53.64762037689789
            ],
            [
              23.871855934325566,
              53.64893998885921
            ],
            [
              23.86929736250471,
              53.65012169586433
            ],
            [
              23.867835321464952,
              53.65073223150796
            ],
            [
              23.864911239384213,
              53.65179572409741
            ],
            [
              23.865941313754064,
              53.65307581848887
            ],
            [
              23.867503039409996,
              53.65380447024512
            ],
            [
              23.86830051634115,
              53.6543952597215
            ],
            [
              23.86378148039941,
              53.65524204353352
            ]
          ]
        ]
      }
    }
  ]
}